[
    {
        "Altitude(m)": 713184.6781273447,
        "Argument of Periapsis(deg)": 0.0022780242373254137,
        "Eccentricity": 0.0,
        "Inclination(deg)": 45.0,
        "Latitude(deg)": -33.72372714330464,
        "Longitude(deg)": -98.52989161062432,
        "Mean Anomaly(deg)": -128.6024566705038,
        "RAAN(deg)": 139.99784961170838,
        "Satellite Name": "Constellation 1 630",
        "Satellite Number": 630,
        "Semi-Major Axis(m)": 7083131.272910544,
        "Time(s)": 38
    },
    {
        "Altitude(m)": 713197.6065571031,
        "Argument of Periapsis(deg)": 0.002337972243570819,
        "Eccentricity": 0.0,
        "Inclination(deg)": 45.0,
        "Latitude(deg)": -33.755866072782744,
        "Longitude(deg)": -98.47227810943158,
        "Mean Anomaly(deg)": -128.54175553025397,
        "RAAN(deg)": 139.99779302254277,
        "Satellite Name": "Constellation 1 630",
        "Satellite Number": 630,
        "Semi-Major Axis(m)": 7083131.272910544,
        "Time(s)": 39
    },
    {
        "Altitude(m)": 713210.5256420347,
        "Argument of Periapsis(deg)": 0.0023979202498162246,
        "Eccentricity": 0.0,
        "Inclination(deg)": 45.0,
        "Latitude(deg)": -33.787973897157194,
        "Longitude(deg)": -98.41461870240909,
        "Mean Anomaly(deg)": -128.48105439000403,
        "RAAN(deg)": 139.9977364333772,
        "Satellite Name": "Constellation 1 630",
        "Satellite Number": 630,
        "Semi-Major Axis(m)": 7083131.272910544,
        "Time(s)": 40
    },
    {
        "Altitude(m)": 713223.4353359732,
        "Argument of Periapsis(deg)": 0.00245786825606163,
        "Eccentricity": 0.0,
        "Inclination(deg)": 45.0,
        "Latitude(deg)": -33.820050556643785,
        "Longitude(deg)": -98.35691334391898,
        "Mean Anomaly(deg)": -128.42035324975404,
        "RAAN(deg)": 139.99767984421166,
        "Satellite Name": "Constellation 1 630",
        "Satellite Number": 630,
        "Semi-Major Axis(m)": 7083131.272910544,
        "Time(s)": 41
    },
    {
        "Altitude(m)": 713236.3355927982,
        "Argument of Periapsis(deg)": 0.002517816262307036,
        "Eccentricity": 0.0,
        "Inclination(deg)": 45.0,
        "Latitude(deg)": -33.85209599139015,
        "Longitude(deg)": -98.29916198847886,
        "Mean Anomaly(deg)": -128.35965210950422,
        "RAAN(deg)": 139.99762325504608,
        "Satellite Name": "Constellation 1 630",
        "Satellite Number": 630,
        "Semi-Major Axis(m)": 7083131.272910544,
        "Time(s)": 42
    },
    {
        "Altitude(m)": 713249.2263664161,
        "Argument of Periapsis(deg)": 0.0025777642685524413,
        "Eccentricity": 0.0,
        "Inclination(deg)": 45.0,
        "Latitude(deg)": -33.884110141475986,
        "Longitude(deg)": -98.24136459076261,
        "Mean Anomaly(deg)": -128.29895096925432,
        "RAAN(deg)": 139.9975666658805,
        "Satellite Name": "Constellation 1 630",
        "Satellite Number": 630,
        "Semi-Major Axis(m)": 7083131.272910544,
        "Time(s)": 43
    },
    {
        "Altitude(m)": 713262.1076107515,
        "Argument of Periapsis(deg)": 0.002637712274797847,
        "Eccentricity": 0.0,
        "Inclination(deg)": 45.0,
        "Latitude(deg)": -33.916092946912684,
        "Longitude(deg)": -98.1835212736996,
        "Mean Anomaly(deg)": -128.23824982900447,
        "RAAN(deg)": 139.99751007671492,
        "Satellite Name": "Constellation 1 630",
        "Satellite Number": 630,
        "Semi-Major Axis(m)": 7083131.272910544,
        "Time(s)": 44
    },
    {
        "Altitude(m)": 713274.9792797657,
        "Argument of Periapsis(deg)": 0.0026976602810432526,
        "Eccentricity": 0.0,
        "Inclination(deg)": 45.0,
        "Latitude(deg)": -33.94804434764423,
        "Longitude(deg)": -98.1256316560855,
        "Mean Anomaly(deg)": -128.17754868875448,
        "RAAN(deg)": 139.99745348754936,
        "Satellite Name": "Constellation 1 630",
        "Satellite Number": 630,
        "Semi-Major Axis(m)": 7083131.272910544,
        "Time(s)": 45
    },
    {
        "Altitude(m)": 713287.8413274501,
        "Argument of Periapsis(deg)": 0.0027576082872886585,
        "Eccentricity": 0.0,
        "Inclination(deg)": 45.0,
        "Latitude(deg)": -33.97996428354634,
        "Longitude(deg)": -98.06769586116852,
        "Mean Anomaly(deg)": -128.11684754850464,
        "RAAN(deg)": 139.9973968983838,
        "Satellite Name": "Constellation 1 630",
        "Satellite Number": 630,
        "Semi-Major Axis(m)": 7083131.272910544,
        "Time(s)": 46
    },
    {
        "Altitude(m)": 713300.6937078118,
        "Argument of Periapsis(deg)": 0.0028175562935340644,
        "Eccentricity": 0.0,
        "Inclination(deg)": 45.0,
        "Latitude(deg)": -34.011852694427446,
        "Longitude(deg)": -98.00971384425966,
        "Mean Anomaly(deg)": -128.05614640825473,
        "RAAN(deg)": 139.99734030921823,
        "Satellite Name": "Constellation 1 630",
        "Satellite Number": 630,
        "Semi-Major Axis(m)": 7083131.272910544,
        "Time(s)": 47
    },
    {
        "Altitude(m)": 713313.5363749004,
        "Argument of Periapsis(deg)": 0.00287750429977947,
        "Eccentricity": 0.0,
        "Inclination(deg)": 45.0,
        "Latitude(deg)": -34.043709520028216,
        "Longitude(deg)": -97.95168556083253,
        "Mean Anomaly(deg)": -127.99544526800481,
        "RAAN(deg)": 139.99728372005265,
        "Satellite Name": "Constellation 1 630",
        "Satellite Number": 630,
        "Semi-Major Axis(m)": 7083131.272910544,
        "Time(s)": 48
    },
    {
        "Altitude(m)": 713326.3692827864,
        "Argument of Periapsis(deg)": 0.002937452306024875,
        "Eccentricity": 0.0,
        "Inclination(deg)": 45.0,
        "Latitude(deg)": -34.075534700022004,
        "Longitude(deg)": -97.89361096652364,
        "Mean Anomaly(deg)": -127.93474412775493,
        "RAAN(deg)": 139.9972271308871,
        "Satellite Name": "Constellation 1 630",
        "Satellite Number": 630,
        "Semi-Major Axis(m)": 7083131.272910544,
        "Time(s)": 49
    },
    {
        "Altitude(m)": 713339.1923855711,
        "Argument of Periapsis(deg)": 0.0029974003122702807,
        "Eccentricity": 0.0,
        "Inclination(deg)": 45.0,
        "Latitude(deg)": -34.107328174014846,
        "Longitude(deg)": -97.83549001713376,
        "Mean Anomaly(deg)": -127.87404298750499,
        "RAAN(deg)": 139.99717054172152,
        "Satellite Name": "Constellation 1 630",
        "Satellite Number": 630,
        "Semi-Major Axis(m)": 7083131.272910544,
        "Time(s)": 50
    },
    {
        "Altitude(m)": 713352.0056373795,
        "Argument of Periapsis(deg)": 0.0030573483185156866,
        "Eccentricity": 0.0,
        "Inclination(deg)": 45.0,
        "Latitude(deg)": -34.13908988154557,
        "Longitude(deg)": -97.77732266862908,
        "Mean Anomaly(deg)": -127.81334184725516,
        "RAAN(deg)": 139.99711395255596,
        "Satellite Name": "Constellation 1 630",
        "Satellite Number": 630,
        "Semi-Major Axis(m)": 7083131.272910544,
        "Time(s)": 51
    },
    {
        "Altitude(m)": 713364.8089923757,
        "Argument of Periapsis(deg)": 0.003117296324761092,
        "Eccentricity": 0.0,
        "Inclination(deg)": 45.0,
        "Latitude(deg)": -34.17081976208594,
        "Longitude(deg)": -97.71910904523929,
        "Mean Anomaly(deg)": -127.75264070700523,
        "RAAN(deg)": 139.99705736339035,
        "Satellite Name": "Constellation 1 630",
        "Satellite Number": 630,
        "Semi-Major Axis(m)": 7083131.272910544,
        "Time(s)": 52
    },
    {
        "Altitude(m)": 713377.6024047539,
        "Argument of Periapsis(deg)": 0.0031772443310064975,
        "Eccentricity": 0.0,
        "Inclination(deg)": 45.0,
        "Latitude(deg)": -34.202517755040915,
        "Longitude(deg)": -97.66084876707004,
        "Mean Anomaly(deg)": -127.69193956675534,
        "RAAN(deg)": 139.9970007742248,
        "Satellite Name": "Constellation 1 630",
        "Satellite Number": 630,
        "Semi-Major Axis(m)": 7083131.272910544,
        "Time(s)": 53
    },
    {
        "Altitude(m)": 713390.3858287235,
        "Argument of Periapsis(deg)": 0.0032371923372519038,
        "Eccentricity": 0.0,
        "Inclination(deg)": 45.0,
        "Latitude(deg)": -34.23418379974848,
        "Longitude(deg)": -97.60254195868738,
        "Mean Anomaly(deg)": -127.63123842650542,
        "RAAN(deg)": 139.99694418505925,
        "Satellite Name": "Constellation 1 630",
        "Satellite Number": 630,
        "Semi-Major Axis(m)": 7083131.272910544,
        "Time(s)": 54
    },
    {
        "Altitude(m)": 713403.159218534,
        "Argument of Periapsis(deg)": 0.0032971403434973088,
        "Eccentricity": 0.0,
        "Inclination(deg)": 45.0,
        "Latitude(deg)": -34.265817835479986,
        "Longitude(deg)": -97.54418857672988,
        "Mean Anomaly(deg)": -127.57053728625549,
        "RAAN(deg)": 139.99688759589367,
        "Satellite Name": "Constellation 1 630",
        "Satellite Number": 630,
        "Semi-Major Axis(m)": 7083131.272910544,
        "Time(s)": 55
    },
    {
        "Altitude(m)": 713415.9225284677,
        "Argument of Periapsis(deg)": 0.0033570883497427146,
        "Eccentricity": 0.0,
        "Inclination(deg)": 45.0,
        "Latitude(deg)": -34.29741980144027,
        "Longitude(deg)": -97.485788578007,
        "Mean Anomaly(deg)": -127.50983614600564,
        "RAAN(deg)": 139.99683100672812,
        "Satellite Name": "Constellation 1 630",
        "Satellite Number": 630,
        "Semi-Major Axis(m)": 7083131.272910544,
        "Time(s)": 56
    }
]